start=new Date('2022-07-07T00:00:00.000Z').valueOf();
sats=[{"MEAN_MOTION_DOT":"0.00001474","BSTAR":"0.00011788000000","TIME_SYSTEM":"UTC","ARG_OF_PERICENTER":"59.0082","OBJECT_ID":"2020-062BC","TLE_LINE2":"2 46375  53.0535 236.7862 0001624  59.0082 301.1066 15.06385336102649","RCS_SIZE":"LARGE","SEMIMAJOR_AXIS":"6925.394","CENTER_NAME":"EARTH","OBJECT_TYPE":"PAYLOAD","EPOCH":"2022-07-06T12:46:36.437952","MEAN_MOTION_DDOT":"0.0000000000000","DECAY_DATE":null,"INCLINATION":"53.0535","SITE":"AFETR","EPHEMERIS_TYPE":"0","OBJECT_NAME":"STARLINK-1724","LAUNCH_DATE":"2020-09-03","CLASSIFICATION_TYPE":"U","PERIOD":"95.593","NORAD_CAT_ID":"46375","FILE":"3508782","MEAN_ELEMENT_THEORY":"SGP4","REV_AT_EPOCH":"10264","ELEMENT_SET_NO":"999","APOAPSIS":"548.383","COUNTRY_CODE":"US","ECCENTRICITY":"0.00016240","MEAN_ANOMALY":"301.1066","REF_FRAME":"TEME","RA_OF_ASC_NODE":"236.7862","MEAN_MOTION":"15.06385336","GP_ID":"207536994","PERIAPSIS":"546.134","TLE_LINE1":"1 46375U 20062BC  22187.53236618  .00001474  00000-0  11788-3 0  9993"},{"OBJECT_TYPE":"PAYLOAD","EPOCH":"2022-07-06T11:32:18.560832","MEAN_MOTION_DDOT":"0.0000000000000","DECAY_DATE":null,"BSTAR":"0.00011910000000","MEAN_MOTION_DOT":"0.00001492","OBJECT_ID":"2020-062BD","TLE_LINE2":"2 46376  53.0536 237.0371 0001467  76.2770 283.8383 15.06380907102816","TIME_SYSTEM":"UTC","ARG_OF_PERICENTER":"76.2770","CENTER_NAME":"EARTH","SEMIMAJOR_AXIS":"6925.407","RCS_SIZE":"LARGE","ECCENTRICITY":"0.00014670","MEAN_ANOMALY":"283.8383","MEAN_MOTION":"15.06380907","RA_OF_ASC_NODE":"237.0371","REF_FRAME":"TEME","PERIAPSIS":"546.256","GP_ID":"207512573","TLE_LINE1":"1 46376U 20062BD  22187.48077038  .00001492  00000-0  11910-3 0  9994","SITE":"AFETR","INCLINATION":"53.0536","OBJECT_NAME":"STARLINK-1742","LAUNCH_DATE":"2020-09-03","EPHEMERIS_TYPE":"0","MEAN_ELEMENT_THEORY":"SGP4","REV_AT_EPOCH":"10281","APOAPSIS":"548.288","ELEMENT_SET_NO":"999","PERIOD":"95.593","NORAD_CAT_ID":"46376","CLASSIFICATION_TYPE":"U","FILE":"3508555","COUNTRY_CODE":"US"},{"MEAN_MOTION_DDOT":"0.0000000000000","OBJECT_TYPE":"PAYLOAD","EPOCH":"2022-07-06T13:54:56.977632","DECAY_DATE":null,"MEAN_MOTION_DOT":"0.00002037","BSTAR":"0.00015568000000","CENTER_NAME":"EARTH","SEMIMAJOR_AXIS":"6925.397","RCS_SIZE":"LARGE","OBJECT_ID":"2020-062BH","TLE_LINE2":"2 46380  53.0557 261.5970 0001424  61.6657 298.4476 15.06384122102308","TIME_SYSTEM":"UTC","ARG_OF_PERICENTER":"61.6657","RA_OF_ASC_NODE":"261.5970","MEAN_MOTION":"15.06384122","REF_FRAME":"TEME","MEAN_ANOMALY":"298.4476","ECCENTRICITY":"0.00014240","TLE_LINE1":"1 46380U 20062BH  22187.57982613  .00002037  00000-0  15568-3 0  9992","PERIAPSIS":"546.276","GP_ID":"207535993","OBJECT_NAME":"STARLINK-1758","LAUNCH_DATE":"2020-09-03","EPHEMERIS_TYPE":"0","SITE":"AFETR","INCLINATION":"53.0557","COUNTRY_CODE":"US","REV_AT_EPOCH":"10230","MEAN_ELEMENT_THEORY":"SGP4","ELEMENT_SET_NO":"999","APOAPSIS":"548.248","CLASSIFICATION_TYPE":"U","PERIOD":"95.593","NORAD_CAT_ID":"46380","FILE":"3508782"},{"RA_OF_ASC_NODE":"236.6790","MEAN_MOTION":"15.06382952","REF_FRAME":"TEME","MEAN_ANOMALY":"302.3690","ECCENTRICITY":"0.00017140","TLE_LINE1":"1 46382U 20062BK  22187.56185855  .00001182  00000-0  98304-4 0  9996","PERIAPSIS":"546.079","GP_ID":"207536243","LAUNCH_DATE":"2020-09-03","OBJECT_NAME":"STARLINK-1769","EPHEMERIS_TYPE":"0","SITE":"AFETR","INCLINATION":"53.0541","COUNTRY_CODE":"US","ELEMENT_SET_NO":"999","APOAPSIS":"548.453","MEAN_ELEMENT_THEORY":"SGP4","REV_AT_EPOCH":"10265","FILE":"3508782","PERIOD":"95.593","NORAD_CAT_ID":"46382","CLASSIFICATION_TYPE":"U","MEAN_MOTION_DDOT":"0.0000000000000","EPOCH":"2022-07-06T13:29:04.578720","OBJECT_TYPE":"PAYLOAD","DECAY_DATE":null,"BSTAR":"0.00009830400000","MEAN_MOTION_DOT":"0.00001182","CENTER_NAME":"EARTH","RCS_SIZE":"LARGE","SEMIMAJOR_AXIS":"6925.401","TLE_LINE2":"2 46382  53.0541 236.6790 0001714  57.7465 302.3690 15.06382952102651","OBJECT_ID":"2020-062BK","TIME_SYSTEM":"UTC","ARG_OF_PERICENTER":"57.7465"},{"REF_FRAME":"TEME","RA_OF_ASC_NODE":"281.7383","MEAN_MOTION":"15.06389936","MEAN_ANOMALY":"298.1777","ECCENTRICITY":"0.00014540","TLE_LINE1":"1 46383U 20062BL  22187.54848264  .00001307  00000-0  10666-3 0  9998","GP_ID":"207512759","PERIAPSIS":"546.237","EPHEMERIS_TYPE":"0","OBJECT_NAME":"STARLINK-1770","LAUNCH_DATE":"2020-09-03","INCLINATION":"53.0549","SITE":"AFETR","COUNTRY_CODE":"US","CLASSIFICATION_TYPE":"U","PERIOD":"95.593","NORAD_CAT_ID":"46383","FILE":"3508564","REV_AT_EPOCH":"10219","MEAN_ELEMENT_THEORY":"SGP4","APOAPSIS":"548.251","ELEMENT_SET_NO":"999","MEAN_MOTION_DDOT":"0.0000000000000","EPOCH":"2022-07-06T13:09:48.900096","OBJECT_TYPE":"PAYLOAD","DECAY_DATE":null,"BSTAR":"0.00010666000000","MEAN_MOTION_DOT":"0.00001307","RCS_SIZE":"LARGE","SEMIMAJOR_AXIS":"6925.379","CENTER_NAME":"EARTH","TIME_SYSTEM":"UTC","ARG_OF_PERICENTER":"61.9359","OBJECT_ID":"2020-062BL","TLE_LINE2":"2 46383  53.0549 281.7383 0001454  61.9359 298.1777 15.06389936102195"},{"OBJECT_TYPE":"PAYLOAD","EPOCH":"2022-07-06T13:15:07.494912","MEAN_MOTION_DDOT":"0.0000000000000","DECAY_DATE":null,"MEAN_MOTION_DOT":"-0.00001545","BSTAR":"-0.00008491200000","TLE_LINE2":"2 46384  53.0539 281.7193 0001270  81.9739 278.1394 15.06384301102198","OBJECT_ID":"2020-062BM","ARG_OF_PERICENTER":"81.9739","TIME_SYSTEM":"UTC","CENTER_NAME":"EARTH","RCS_SIZE":"LARGE","SEMIMAJOR_AXIS":"6925.397","MEAN_ANOMALY":"278.1394","ECCENTRICITY":"0.00012700","MEAN_MOTION":"15.06384301","RA_OF_ASC_NODE":"281.7193","REF_FRAME":"TEME","PERIAPSIS":"546.382","GP_ID":"207512828","TLE_LINE1":"1 46384U 20062BM  22187.55217008 -.00001545  00000-0 -84912-4 0  9998","SITE":"AFETR","INCLINATION":"53.0539","LAUNCH_DATE":"2020-09-03","OBJECT_NAME":"STARLINK-1771","EPHEMERIS_TYPE":"0","APOAPSIS":"548.141","ELEMENT_SET_NO":"999","REV_AT_EPOCH":"10219","MEAN_ELEMENT_THEORY":"SGP4","FILE":"3508564","NORAD_CAT_ID":"46384","PERIOD":"95.593","CLASSIFICATION_TYPE":"U","COUNTRY_CODE":"US"},{"TLE_LINE1":"1 46532U 20070A   22187.41949854  .00007299  00000-0  50893-3 0  9998","GP_ID":"207536007","PERIAPSIS":"546.266","REF_FRAME":"TEME","RA_OF_ASC_NODE":"82.3018","MEAN_MOTION":"15.06362655","MEAN_ANOMALY":"298.1675","ECCENTRICITY":"0.00015340","COUNTRY_CODE":"US","NORAD_CAT_ID":"46532","PERIOD":"95.595","CLASSIFICATION_TYPE":"U","FILE":"3508782","MEAN_ELEMENT_THEORY":"SGP4","REV_AT_EPOCH":"9719","APOAPSIS":"548.390","ELEMENT_SET_NO":"999","EPHEMERIS_TYPE":"0","OBJECT_NAME":"STARLINK-1644","LAUNCH_DATE":"2020-10-06","INCLINATION":"53.0556","SITE":"AFETR","DECAY_DATE":null,"MEAN_MOTION_DDOT":"0.0000000000000","EPOCH":"2022-07-06T10:04:04.673856","OBJECT_TYPE":"PAYLOAD","RCS_SIZE":"LARGE","SEMIMAJOR_AXIS":"6925.463","CENTER_NAME":"EARTH","ARG_OF_PERICENTER":"61.9469","TIME_SYSTEM":"UTC","OBJECT_ID":"2020-070A","TLE_LINE2":"2 46532  53.0556  82.3018 0001534  61.9469 298.1675 15.06362655 97199","MEAN_MOTION_DOT":"0.00007299","BSTAR":"0.00050893000000"},{"TIME_SYSTEM":"UTC","ARG_OF_PERICENTER":"65.4845","OBJECT_ID":"2020-070B","TLE_LINE2":"2 46533  53.0550  82.2431 0001706  65.4845 294.6321 15.06385042 97194","SEMIMAJOR_AXIS":"6925.394","RCS_SIZE":"LARGE","CENTER_NAME":"EARTH","MEAN_MOTION_DOT":"0.00000805","BSTAR":"0.00007294000000","DECAY_DATE":null,"EPOCH":"2022-07-06T10:19:58.653408","OBJECT_TYPE":"PAYLOAD","MEAN_MOTION_DDOT":"0.0000000000000","PERIOD":"95.593","CLASSIFICATION_TYPE":"U","NORAD_CAT_ID":"46533","FILE":"3508782","REV_AT_EPOCH":"9719","MEAN_ELEMENT_THEORY":"SGP4","APOAPSIS":"548.441","ELEMENT_SET_NO":"999","COUNTRY_CODE":"US","INCLINATION":"53.0550","SITE":"AFETR","EPHEMERIS_TYPE":"0","OBJECT_NAME":"STARLINK-1648","LAUNCH_DATE":"2020-10-06","GP_ID":"207536257","PERIAPSIS":"546.078","TLE_LINE1":"1 46533U 20070B   22187.43053997  .00000805  00000-0  72940-4 0  9999","ECCENTRICITY":"0.00017060","MEAN_ANOMALY":"294.6321","REF_FRAME":"TEME","MEAN_MOTION":"15.06385042","RA_OF_ASC_NODE":"82.2431"},{"DECAY_DATE":null,"EPOCH":"2022-07-06T05:06:48.746016","OBJECT_TYPE":"PAYLOAD","MEAN_MOTION_DDOT":"0.0000000000000","TLE_LINE2":"2 46534  53.0535  83.2366 0001840  62.0986 298.0189 15.06388926 97165","OBJECT_ID":"2020-070C","ARG_OF_PERICENTER":"62.0986","TIME_SYSTEM":"UTC","CENTER_NAME":"EARTH","RCS_SIZE":"LARGE","SEMIMAJOR_AXIS":"6925.382","BSTAR":"0.00010097000000","MEAN_MOTION_DOT":"0.00001222","PERIAPSIS":"545.973","GP_ID":"207537508","TLE_LINE1":"1 46534U 20070C   22187.21306419  .00001222  00000-0  10097-3 0  9994","ECCENTRICITY":"0.00018400","MEAN_ANOMALY":"298.0189","MEAN_MOTION":"15.06388926","RA_OF_ASC_NODE":"83.2366","REF_FRAME":"TEME","ELEMENT_SET_NO":"999","APOAPSIS":"548.522","REV_AT_EPOCH":"9716","MEAN_ELEMENT_THEORY":"SGP4","FILE":"3508782","PERIOD":"95.593","CLASSIFICATION_TYPE":"U","NORAD_CAT_ID":"46534","COUNTRY_CODE":"US","SITE":"AFETR","INCLINATION":"53.0535","LAUNCH_DATE":"2020-10-06","OBJECT_NAME":"STARLINK-1659","EPHEMERIS_TYPE":"0"},{"TLE_LINE2":"2 46535  53.0547  82.3928 0001779  66.4782 293.6394 15.06397967 97182","OBJECT_ID":"2020-070D","TIME_SYSTEM":"UTC","ARG_OF_PERICENTER":"66.4782","CENTER_NAME":"EARTH","RCS_SIZE":"LARGE","SEMIMAJOR_AXIS":"6925.355","MEAN_MOTION_DOT":"0.00004178","BSTAR":"0.00029921000000","DECAY_DATE":null,"OBJECT_TYPE":"PAYLOAD","EPOCH":"2022-07-06T09:37:30.495360","MEAN_MOTION_DDOT":"0.0000000000000","APOAPSIS":"548.452","ELEMENT_SET_NO":"999","REV_AT_EPOCH":"9718","MEAN_ELEMENT_THEORY":"SGP4","FILE":"3508782","PERIOD":"95.592","NORAD_CAT_ID":"46535","CLASSIFICATION_TYPE":"U","COUNTRY_CODE":"US","SITE":"AFETR","INCLINATION":"53.0547","LAUNCH_DATE":"2020-10-06","OBJECT_NAME":"STARLINK-1663","EPHEMERIS_TYPE":"0","PERIAPSIS":"545.988","GP_ID":"207537759","TLE_LINE1":"1 46535U 20070D   22187.40104740  .00004178  00000-0  29921-3 0  9998","ECCENTRICITY":"0.00017790","MEAN_ANOMALY":"293.6394","RA_OF_ASC_NODE":"82.3928","MEAN_MOTION":"15.06397967","REF_FRAME":"TEME"}];
